[{"OBJECT_NAME":"STARLINK-34482","OBJECT_ID":"2025-147AD","EPOCH":"2026-03-09T18:07:05.316960","MEAN_MOTION":15.30234539,"ECCENTRICITY":8.885e-5,"INCLINATION":53.1587,"RA_OF_ASC_NODE":242.3034,"ARG_OF_PERICENTER":71.6135,"MEAN_ANOMALY":288.4962,"EPHEMERIS_TYPE":0,"CLASSIFICATION_TYPE":"U","NORAD_CAT_ID":64782,"ELEMENT_SET_NO":999,"REV_AT_EPOCH":3880,"BSTAR":0.00088132818,"MEAN_MOTION_DOT":0.00025862,"MEAN_MOTION_DDOT":0},{"OBJECT_NAME":"239ALFEROV (RS61S)","OBJECT_ID":"2025-155F","EPOCH":"2026-03-09T21:46:33.382848","MEAN_MOTION":15.29933217,"ECCENTRICITY":0.00084878,"INCLINATION":97.4469,"RA_OF_ASC_NODE":37.6373,"ARG_OF_PERICENTER":151.5904,"MEAN_ANOMALY":208.58,"EPHEMERIS_TYPE":0,"CLASSIFICATION_TYPE":"U","NORAD_CAT_ID":64881,"ELEMENT_SET_NO":999,"REV_AT_EPOCH":6561,"BSTAR":0.00067233359,"MEAN_MOTION_DOT":0.00019457,"MEAN_MOTION_DDOT":0}]
